$$SOE
2460147.500000000, A.D. 2023-Jul-22 00:00:00.0000, 4.638885488394684E+08, -2.982341903129090E+08, -1.895587274855463E+07,
2460154.500000000, A.D. 2023-Jul-29 00:00:00.0000, 4.688073003296472E+08, -2.912840917902626E+08, -1.929140601311068E+07,
2460161.500000000, A.D. 2023-Aug-05 00:00:00.0000, 4.735908978276355E+08, -2.842499854274510E+08, -1.962137720213504E+07,
2460168.500000000, A.D. 2023-Aug-12 00:00:00.0000, 4.782382758916108E+08, -2.771340896212448E+08, -1.994570412037499E+07,
2460175.500000000, A.D. 2023-Aug-19 00:00:00.0000, 4.827483928158160E+08, -2.699386245495353E+08, -2.026430574385275E+07,
2460182.500000000, A.D. 2023-Aug-26 00:00:00.0000, 4.871202301824374E+08, -2.626658123629633E+08, -2.057710218794869E+07,
2460189.500000000, A.D. 2023-Sep-02 00:00:00.0000, 4.913527924119028E+08, -2.553178774601017E+08, -2.088401468107067E+07,
2460196.500000000, A.D. 2023-Sep-09 00:00:00.0000, 4.954451063478131E+08, -2.478970468861035E+08, -2.118496555058646E+07,
2460203.500000000, A.D. 2023-Sep-16 00:00:00.0000, 4.993962210449812E+08, -2.404055509116520E+08, -2.147987824116647E+07,
2460210.500000000, A.D. 2023-Sep-23 00:00:00.0000, 5.032052081775072E+08, -2.328456235044637E+08, -2.176867738024516E+07,
2460217.500000000, A.D. 2023-Sep-30 00:00:00.0000, 5.068711627285745E+08, -2.252195015022234E+08, -2.205128876204760E+07,
2460224.500000000, A.D. 2023-Oct-07 00:00:00.0000, 5.103932016096116E+08, -2.175294230304979E+08, -2.232763907853059E+07,
2460231.500000000, A.D. 2023-Oct-14 00:00:00.0000, 5.137704612486475E+08, -2.097776284796868E+08, -2.259765576326954E+07,
2460238.500000000, A.D. 2023-Oct-21 00:00:00.0000, 5.170020973754594E+08, -2.019663624380444E+08, -2.286126711329767E+07,
2460245.500000000, A.D. 2023-Oct-28 00:00:00.0000, 5.200872855788412E+08, -1.940978743200852E+08, -2.311840237331368E+07,
2460252.500000000, A.D. 2023-Nov-04 00:00:00.0000, 5.230252213859934E+08, -1.861744184605042E+08, -2.336899173029816E+07,
2460259.500000000, A.D. 2023-Nov-11 00:00:00.0000, 5.258151200415272E+08, -1.781982542732581E+08, -2.361296628358173E+07,
2460266.500000000, A.D. 2023-Nov-18 00:00:00.0000, 5.284562162054691E+08, -1.701716465398129E+08, -2.385025801549904E+07,
2460273.500000000, A.D. 2023-Nov-25 00:00:00.0000, 5.309477636430565E+08, -1.620968658036794E+08, -2.408079976723700E+07,
2460280.500000000, A.D. 2023-Dec-02 00:00:00.0000, 5.332890349345291E+08, -1.539761888821803E+08, -2.430452522320304E+07,
2460287.500000000, A.D. 2023-Dec-09 00:00:00.0000, 5.354793212826908E+08, -1.458118995541965E+08, -2.452136891576663E+07,
2460294.500000000, A.D. 2023-Dec-16 00:00:00.0000, 5.375179327054443E+08, -1.376062894110751E+08, -2.473126627570014E+07,
2460301.500000000, A.D. 2023-Dec-23 00:00:00.0000, 5.394041989614006E+08, -1.293616581825662E+08, -2.493415370413649E+07,
2460308.500000000, A.D. 2023-Dec-30 00:00:00.0000, 5.411374698689611E+08, -1.210803124877804E+08, -2.512996845744558E+07,
2460315.500000000, A.D. 2024-Jan-06 00:00:00.0000, 5.427171132476106E+08, -1.127645653721055E+08, -2.531864837556952E+07,
2460322.500000000, A.D. 2024-Jan-13 00:00:00.0000, 5.441425136540315E+08, -1.044167384373748E+08, -2.550013189277995E+07,
2460329.500000000, A.D. 2024-Jan-20 00:00:00.0000, 5.454130731359923E+08, -9.603916348018764E+07, -2.567435819126772E+07,
2460336.500000000, A.D. 2024-Jan-27 00:00:00.0000, 5.465282119755325E+08, -8.763418298559026E+07, -2.584126725842572E+07,
2460343.500000000, A.D. 2024-Feb-03 00:00:00.0000, 5.474873689936306E+08, -7.920415042445041E+07, -2.600079988630098E+07,
2460350.500000000, A.D. 2024-Feb-10 00:00:00.0000, 5.482900016941729E+08, -7.075143064542991E+07, -2.615289766268066E+07,
2460357.500000000, A.D. 2024-Feb-17 00:00:00.0000, 5.489355863863633E+08, -6.227840035337698E+07, -2.629750296608484E+07,
2460364.500000000, A.D. 2024-Feb-24 00:00:00.0000, 5.494236183220141E+08, -5.378744865907073E+07, -2.643455896692297E+07,
2460371.500000000, A.D. 2024-Mar-02 00:00:00.0000, 5.497536118776631E+08, -4.528097773260427E+07, -2.656400964030279E+07,
2460378.500000000, A.D. 2024-Mar-09 00:00:00.0000, 5.499251009208689E+08, -3.676140362314714E+07, -2.668579980848887E+07,
2460385.500000000, A.D. 2024-Mar-16 00:00:00.0000, 5.499376397561544E+08, -2.823115704768011E+07, -2.679987523324738E+07,
2460392.500000000, A.D. 2024-Mar-23 00:00:00.0000, 5.497908045471126E+08, -1.969268303897189E+07, -2.690618265798248E+07,
2460399.500000000, A.D. 2024-Mar-30 00:00:00.0000, 5.494841929748546E+08, -1.114843947877702E+07, -2.700466959629724E+07,
2460406.500000000, A.D. 2024-Apr-06 00:00:00.0000, 5.490174223906211E+08, -2.600897884244978E+06, -2.709528416577174E+07,
2460413.500000000, A.D. 2024-Apr-13 00:00:00.0000, 5.483901300136410E+08, 5.947454388257688E+06, -2.717797522441110E+07,
2460420.500000000, A.D. 2024-Apr-20 00:00:00.0000, 5.476019742214624E+08, 1.449411319882136E+07, -2.725269250367070E+07,
2460427.500000000, A.D. 2024-Apr-27 00:00:00.0000, 5.466526354156247E+08, 2.303655737835071E+07, -2.731938664473626E+07,
2460434.500000000, A.D. 2024-May-04 00:00:00.0000, 5.455418165506674E+08, 3.157224847905613E+07, -2.737800920353731E+07,
2460441.500000000, A.D. 2024-May-11 00:00:00.0000, 5.442692435652201E+08, 4.009863042054223E+07, -2.742851265458715E+07,
2460448.500000000, A.D. 2024-May-18 00:00:00.0000, 5.428346657981907E+08, 4.861312905457003E+07, -2.747085039930024E+07,
2460455.500000000, A.D. 2024-May-25 00:00:00.0000, 5.412378564163693E+08, 5.711315164265021E+07, -2.750497678152530E+07,
2460462.500000000, A.D. 2024-Jun-01 00:00:00.0000, 5.394786129150956E+08, 6.559608618990067E+07, -2.753084712035413E+07,
2460469.500000000, A.D. 2024-Jun-08 00:00:00.0000, 5.375567579398448E+08, 7.405930061260952E+07, -2.754841778454274E+07,
2460476.500000000, A.D. 2024-Jun-15 00:00:00.0000, 5.354721408288071E+08, 8.250014228484689E+07, -2.755764630046144E+07,
2460483.500000000, A.D. 2024-Jun-22 00:00:00.0000, 5.332246388712834E+08, 9.091593914034820E+07, -2.755849130505245E+07,
2460490.500000000, A.D. 2024-Jun-29 00:00:00.0000, 5.308141561617998E+08, 9.930400051047021E+07, -2.755091229774212E+07,
2460497.500000000, A.D. 2024-Jul-06 00:00:00.0000, 5.282406226968432E+08, 1.076616152275720E+08, -2.753486963578580E+07,
2460504.500000000, A.D. 2024-Jul-13 00:00:00.0000, 5.255039956636443E+08, 1.159860498182682E+08, -2.751032472097747E+07,
2460511.500000000, A.D. 2024-Jul-20 00:00:00.0000, 5.226042609355598E+08, 1.242745479364726E+08, -2.747724010163701E+07,
2460518.500000000, A.D. 2024-Jul-27 00:00:00.0000, 5.195414341190554E+08, 1.325243300781488E+08, -2.743557950814373E+07,
2460525.500000000, A.D. 2024-Aug-03 00:00:00.0000, 5.163155614264084E+08, 1.407325932041511E+08, -2.738530787782536E+07,
2460532.500000000, A.D. 2024-Aug-10 00:00:00.0000, 5.129267205410691E+08, 1.488965102681530E+08, -2.732639138498763E+07,
2460539.500000000, A.D. 2024-Aug-17 00:00:00.0000, 5.093750215242121E+08, 1.570132296730436E+08, -2.725879747892020E+07,
2460546.500000000, A.D. 2024-Aug-24 00:00:00.0000, 5.056606077916167E+08, 1.650798746353773E+08, -2.718249493457337E+07,
2460553.500000000, A.D. 2024-Aug-31 00:00:00.0000, 5.017836572779951E+08, 1.730935423982935E+08, -2.709745393189458E+07,
2460560.500000000, A.D. 2024-Sep-07 00:00:00.0000, 4.977443841557572E+08, 1.810513034209351E+08, -2.700364618741977E+07,
2460567.500000000, A.D. 2024-Sep-14 00:00:00.0000, 4.935430411941645E+08, 1.889502015416546E+08, -2.690104506489596E+07,
2460574.500000000, A.D. 2024-Sep-21 00:00:00.0000, 4.891799207303898E+08, 1.967872555299619E+08, -2.678962544531943E+07,
2460581.500000000, A.D. 2024-Sep-28 00:00:00.0000, 4.846553537673190E+08, 2.045594588025823E+08, -2.666936357569306E+07,
2460588.500000000, A.D. 2024-Oct-05 00:00:00.0000, 4.799697108702257E+08, 2.122637773068005E+08, -2.654023723332204E+07,
2460595.500000000, A.D. 2024-Oct-12 00:00:00.0000, 4.751234045021365E+08, 2.198971485525422E+08, -2.640222592920519E+07,
2460602.500000000, A.D. 2024-Oct-19 00:00:00.0000, 4.701168910473908E+08, 2.274564815247291E+08, -2.625531101210064E+07,
2460609.500000000, A.D. 2024-Oct-26 00:00:00.0000, 4.649506724919912E+08, 2.349386566772836E+08, -2.609947573583803E+07,
2460616.500000000, A.D. 2024-Nov-02 00:00:00.0000, 4.596252980191729E+08, 2.423405258634219E+08, -2.593470532565702E+07,
2460623.500000000, A.D. 2024-Nov-09 00:00:00.0000, 4.541413656179727E+08, 2.496589122263395E+08, -2.576098705079542E+07,
2460630.500000000, A.D. 2024-Nov-16 00:00:00.0000, 4.484995237321028E+08, 2.568906100543191E+08, -2.557831030574422E+07,
2460637.500000000, A.D. 2024-Nov-23 00:00:00.0000, 4.427004729977959E+08, 2.640323845544072E+08, -2.538666670863539E+07,
2460644.500000000, A.D. 2024-Nov-30 00:00:00.0000, 4.367449682810648E+08, 2.710809715060806E+08, -2.518605023946607E+07,
2460651.500000000, A.D. 2024-Dec-07 00:00:00.0000, 4.306338214360468E+08, 2.780330772190019E+08, -2.497645742239699E+07,
2460658.500000000, A.D. 2024-Dec-14 00:00:00.0000, 4.243679040967265E+08, 2.848853800214492E+08, -2.475788738895811E+07,
2460665.500000000, A.D. 2024-Dec-21 00:00:00.0000, 4.179481481832852E+08, 2.916345320423191E+08, -2.453034171067882E+07,
2460672.500000000, A.D. 2024-Dec-28 00:00:00.0000, 4.113755460970328E+08, 2.982771583241073E+08, -2.429382442446855E+07,
2460679.500000000, A.D. 2025-Jan-04 00:00:00.0000, 4.046511532019652E+08, 3.048098556464013E+08, -2.404834229476038E+07,
2460686.500000000, A.D. 2025-Jan-11 00:00:00.0000, 3.977760907705224E+08, 3.112291927237371E+08, -2.379390500946124E+07,
2460693.500000000, A.D. 2025-Jan-18 00:00:00.0000, 3.907515484761809E+08, 3.175317108648227E+08, -2.353052530040349E+07,
2460700.500000000, A.D. 2025-Jan-25 00:00:00.0000, 3.835787866771519E+08, 3.237139246249647E+08, -2.325821904922889E+07,
2460707.500000000, A.D. 2025-Feb-01 00:00:00.0000, 3.762591386818930E+08, 3.297723224277360E+08, -2.297700539842394E+07,
2460714.500000000, A.D. 2025-Feb-08 00:00:00.0000, 3.687940130557722E+08, 3.357033671813965E+08, -2.268690687114948E+07,
$$EOE